{"type": "FeatureCollection", "features": [ {"type": "Feature", "properties": {"norad_id": 34014, "name": "COSMOS 2251 DEB", "group": "cosmos-2251-debris", "lat": -12.366952581796784, "lon": -110.49053270749573, "alt_km": 634.8461712703029, "timestamp": "2025-12-26T21:25:53.402907+00:00", "meta": {"OBJECT_NAME": "COSMOS 2251 DEB", "OBJECT_ID": "1993-036GZ", "EPOCH": "2025-12-26T02:29:51.329184", "MEAN_MOTION": 14.73292495, "ECCENTRICITY": 0.00376323, "INCLINATION": 74.0164, "RA_OF_ASC_NODE": 254.6514, "ARG_OF_PERICENTER": 30.6143, "MEAN_ANOMALY": 94.3633, "EPHEMERIS_TYPE": 0, "CLASSIFICATION_TYPE": "U", "NORAD_CAT_ID": 34014, "ELEMENT_SET_NO": 999, "REV_AT_EPOCH": 89500, "BSTAR": 0.00087326401, "MEAN_MOTION_DOT": 5.682e-05, "MEAN_MOTION_DDOT": 0}, "tle": {"line1": "1 34014U 93036GZ  25360.10406631  .00005682  00000+0  87326-3 0  9999", "line2": "2 34014  74.0164 254.6514 0037632  30.6143  94.3633 14.73292495895007"}}, "geometry": {"type": "Point", "coordinates": [-110.49053270749573, -12.366952581796784]}}, {"type": "Feature", "properties": {"norad_id": 34015, "name": "COSMOS 2251 DEB", "group": "cosmos-2251-debris", "lat": 11.615358980273463, "lon": -50.99213829240975, "alt_km": 685.67837005396, "timestamp": "2025-12-26T21:25:53.402918+00:00", "meta": {"OBJECT_NAME": "COSMOS 2251 DEB", "OBJECT_ID": "1993-036HA", "EPOCH": "2025-12-26T11:04:40.599264", "MEAN_MOTION": 14.60412138, "ECCENTRICITY": 0.00208336, "INCLINATION": 74.0241, "RA_OF_ASC_NODE": 133.2077, "ARG_OF_PERICENTER": 229.7617, "MEAN_ANOMALY": 191.1053, "EPHEMERIS_TYPE": 0, "CLASSIFICATION_TYPE": "U", "NORAD_CAT_ID": 34015, "ELEMENT_SET_NO": 999, "REV_AT_EPOCH": 88731, "BSTAR": 0.001126154, "MEAN_MOTION_DOT": 5.444e-05, "MEAN_MOTION_DDOT": 0}, "tle": {"line1": "1 34015U 93036HA  25360.46158101  .00005444  00000+0  11262-2 0  9996", "line2": "2 34015  74.0241 133.2077 0020833 229.7617 191.1053 14.60412138887313"}}, "geometry": {"type": "Point", "coordinates": [-50.99213829240975, 11.615358980273463]}}, {"type": "Feature", "properties": {"norad_id": 34018, "name": "COSMOS 2251 DEB", "group": "cosmos-2251-debris", "lat": -54.66441037550028, "lon": -87.81109509134637, "alt_km": 1104.9598268071286, "timestamp": "2025-12-26T21:25:53.402928+00:00", "meta": {"OBJECT_NAME": "COSMOS 2251 DEB", "OBJECT_ID": "1993-036HD", "EPOCH": "2025-12-25T22:14:22.255872", "MEAN_MOTION": 13.81085933, "ECCENTRICITY": 0.0263082, "INCLINATION": 73.878, "RA_OF_ASC_NODE": 69.7495, "ARG_OF_PERICENTER": 103.0979, "MEAN_ANOMALY": 10.1653, "EPHEMERIS_TYPE": 0, "CLASSIFICATION_TYPE": "U", "NORAD_CAT_ID": 34018, "ELEMENT_SET_NO": 999, "REV_AT_EPOCH": 84839, "BSTAR": 0.00033084, "MEAN_MOTION_DOT": 4.33e-06, "MEAN_MOTION_DDOT": 0}, "tle": {"line1": "1 34018U 93036HD  25359.92664648  .00000433  00000+0  33084-3 0  9996", "line2": "2 34018  73.8780  69.7495 0263082 103.0979  10.1653 13.81085933848390"}}, "geometry": {"type": "Point", "coordinates": [-87.81109509134637, -54.66441037550028]}}, {"type": "Feature", "properties": {"norad_id": 34019, "name": "COSMOS 2251 DEB", "group": "cosmos-2251-debris", "lat": 6.687448765728676, "lon": -157.22376931287727, "alt_km": 741.8550542606226, "timestamp": "2025-12-26T21:25:53.402938+00:00", "meta": {"OBJECT_NAME": "COSMOS 2251 DEB", "OBJECT_ID": "1993-036HE", "EPOCH": "2025-12-26T12:48:45.326880", "MEAN_MOTION": 14.33996638, "ECCENTRICITY": 0.00620785, "INCLINATION": 73.9542, "RA_OF_ASC_NODE": 25.3702, "ARG_OF_PERICENTER": 204.4765, "MEAN_ANOMALY": 275.6286, "EPHEMERIS_TYPE": 0, "CLASSIFICATION_TYPE": "U", "NORAD_CAT_ID": 34019, "ELEMENT_SET_NO": 999, "REV_AT_EPOCH": 87718, "BSTAR": 0.00074573495, "MEAN_MOTION_DOT": 2.101e-05, "MEAN_MOTION_DDOT": 0}, "tle": {"line1": "1 34019U 93036HE  25360.53385795  .00002101  00000+0  74573-3 0  9991", "line2": "2 34019  73.9542  25.3702 0062078 204.4765 275.6286 14.33996638877188"}}, "geometry": {"type": "Point", "coordinates": [-157.22376931287727, 6.687448765728676]}}, {"type": "Feature", "properties": {"norad_id": 34021, "name": "COSMOS 2251 DEB", "group": "cosmos-2251-debris", "lat": 6.7826337107061905, "lon": 105.20519394986225, "alt_km": 735.0467170939637, "timestamp": "2025-12-26T21:25:53.402949+00:00", "meta": {"OBJECT_NAME": "COSMOS 2251 DEB", "OBJECT_ID": "1993-036HG", "EPOCH": "2025-12-26T13:11:20.872032", "MEAN_MOTION": 14.4999724, "ECCENTRICITY": 0.0020968, "INCLINATION": 74.0362, "RA_OF_ASC_NODE": 103.8988, "ARG_OF_PERICENTER": 246.7101, "MEAN_ANOMALY": 128.2718, "EPHEMERIS_TYPE": 0, "CLASSIFICATION_TYPE": "U", "NORAD_CAT_ID": 34021, "ELEMENT_SET_NO": 999, "REV_AT_EPOCH": 88830, "BSTAR": 0.00049990544, "MEAN_MOTION_DOT": 1.914e-05, "MEAN_MOTION_DDOT": 0}, "tle": {"line1": "1 34021U 93036HG  25360.54954713  .00001914  00000+0  49991-3 0  9994", "line2": "2 34021  74.0362 103.8988 0020968 246.7101 128.2718 14.49997240888302"}}, "geometry": {"type": "Point", "coordinates": [105.20519394986225, 6.7826337107061905]}}, {"type": "Feature", "properties": {"norad_id": 34022, "name": "COSMOS 2251 DEB", "group": "cosmos-2251-debris", "lat": -16.00382884029286, "lon": -119.98676168317104, "alt_km": 752.9650117218343, "timestamp": "2025-12-26T21:25:53.402959+00:00", "meta": {"OBJECT_NAME": "COSMOS 2251 DEB", "OBJECT_ID": "1993-036HH", "EPOCH": "2025-12-26T03:52:05.044800", "MEAN_MOTION": 14.38981592, "ECCENTRICITY": 0.00230906, "INCLINATION": 74.0534, "RA_OF_ASC_NODE": 246.0652, "ARG_OF_PERICENTER": 308.9146, "MEAN_ANOMALY": 204.8914, "EPHEMERIS_TYPE": 0, "CLASSIFICATION_TYPE": "U", "NORAD_CAT_ID": 34022, "ELEMENT_SET_NO": 999, "REV_AT_EPOCH": 88388, "BSTAR": 0.00019100519, "MEAN_MOTION_DOT": 5.65e-06, "MEAN_MOTION_DDOT": 0}, "tle": {"line1": "1 34022U 93036HH  25360.16116950  .00000565  00000+0  19101-3 0  9997", "line2": "2 34022  74.0534 246.0652 0023090 308.9146 204.8914 14.38981592883889"}}, "geometry": {"type": "Point", "coordinates": [-119.98676168317104, -16.00382884029286]}}, {"type": "Feature", "properties": {"norad_id": 34023, "name": "COSMOS 2251 DEB", "group": "cosmos-2251-debris", "lat": -15.103165598878073, "lon": -138.88348349222397, "alt_km": 748.6738698141517, "timestamp": "2025-12-26T21:25:53.402969+00:00", "meta": {"OBJECT_NAME": "COSMOS 2251 DEB", "OBJECT_ID": "1993-036HJ", "EPOCH": "2025-12-26T08:59:46.074912", "MEAN_MOTION": 14.40586453, "ECCENTRICITY": 0.00189468, "INCLINATION": 74.0236, "RA_OF_ASC_NODE": 226.5095, "ARG_OF_PERICENTER": 320.3065, "MEAN_ANOMALY": 217.9393, "EPHEMERIS_TYPE": 0, "CLASSIFICATION_TYPE": "U", "NORAD_CAT_ID": 34023, "ELEMENT_SET_NO": 999, "REV_AT_EPOCH": 88410, "BSTAR": 0.00026319535, "MEAN_MOTION_DOT": 8.14e-06, "MEAN_MOTION_DDOT": 0}, "tle": {"line1": "1 34023U 93036HJ  25360.37483883  .00000814  00000+0  26320-3 0  9991", "line2": "2 34023  74.0236 226.5095 0018946 320.3065 217.9393 14.40586453884107"}}, "geometry": {"type": "Point", "coordinates": [-138.88348349222397, -15.103165598878073]}}, {"type": "Feature", "properties": {"norad_id": 34024, "name": "COSMOS 2251 DEB", "group": "cosmos-2251-debris", "lat": 74.02186900442969, "lon": 22.638838814679406, "alt_km": 772.254347115434, "timestamp": "2025-12-26T21:25:53.402979+00:00", "meta": {"OBJECT_NAME": "COSMOS 2251 DEB", "OBJECT_ID": "1993-036HK", "EPOCH": "2025-12-26T13:28:27.947712", "MEAN_MOTION": 14.3541169, "ECCENTRICITY": 0.00216315, "INCLINATION": 74.0471, "RA_OF_ASC_NODE": 290.6599, "ARG_OF_PERICENTER": 338.5512, "MEAN_ANOMALY": 199.3687, "EPHEMERIS_TYPE": 0, "CLASSIFICATION_TYPE": "U", "NORAD_CAT_ID": 34024, "ELEMENT_SET_NO": 999, "REV_AT_EPOCH": 88222, "BSTAR": 0.00020824623, "MEAN_MOTION_DOT": 5.73e-06, "MEAN_MOTION_DDOT": 0}, "tle": {"line1": "1 34024U 93036HK  25360.56143458  .00000573  00000+0  20825-3 0  9990", "line2": "2 34024  74.0471 290.6599 0021631 338.5512 199.3687 14.35411690882227"}}, "geometry": {"type": "Point", "coordinates": [22.638838814679406, 74.02186900442969]}}, {"type": "Feature", "properties": {"norad_id": 34026, "name": "COSMOS 2251 DEB", "group": "cosmos-2251-debris", "lat": 8.711062943063697, "lon": -43.69061368029298, "alt_km": 1273.8225964290004, "timestamp": "2025-12-26T21:25:53.402990+00:00", "meta": {"OBJECT_NAME": "COSMOS 2251 DEB", "OBJECT_ID": "1993-036HM", "EPOCH": "2025-12-25T00:00:06.887808", "MEAN_MOTION": 13.65323017, "ECCENTRICITY": 0.0349583, "INCLINATION": 73.7668, "RA_OF_ASC_NODE": 316.8973, "ARG_OF_PERICENTER": 185.0257, "MEAN_ANOMALY": 244.2207, "EPHEMERIS_TYPE": 0, "CLASSIFICATION_TYPE": "U", "NORAD_CAT_ID": 34026, "ELEMENT_SET_NO": 999, "REV_AT_EPOCH": 83699, "BSTAR": 0.00042875556, "MEAN_MOTION_DOT": 5.06e-06, "MEAN_MOTION_DDOT": 0}, "tle": {"line1": "1 34026U 93036HM  25359.00007972  .00000506  00000+0  42876-3 0  9995", "line2": "2 34026  73.7668 316.8973 0349583 185.0257 244.2207 13.65323017836998"}}, "geometry": {"type": "Point", "coordinates": [-43.69061368029298, 8.711062943063697]}}, {"type": "Feature", "properties": {"norad_id": 34028, "name": "COSMOS 2251 DEB", "group": "cosmos-2251-debris", "lat": -73.80605643289033, "lon": -119.01172863185501, "alt_km": 1594.010001231275, "timestamp": "2025-12-26T21:25:53.403000+00:00", "meta": {"OBJECT_NAME": "COSMOS 2251 DEB", "OBJECT_ID": "1993-036HP", "EPOCH": "2025-12-26T15:29:28.398912", "MEAN_MOTION": 13.20635105, "ECCENTRICITY": 0.05434588, "INCLINATION": 73.884, "RA_OF_ASC_NODE": 325.9309, "ARG_OF_PERICENTER": 101.3862, "MEAN_ANOMALY": 72.7458, "EPHEMERIS_TYPE": 0, "CLASSIFICATION_TYPE": "U", "NORAD_CAT_ID": 34028, "ELEMENT_SET_NO": 999, "REV_AT_EPOCH": 81191, "BSTAR": 0.0006122753, "MEAN_MOTION_DOT": 5.24e-06, "MEAN_MOTION_DDOT": 0}, "tle": {"line1": "1 34028U 93036HP  25360.64546758  .00000524  00000+0  61228-3 0  9991", "line2": "2 34028  73.8840 325.9309 0543458 101.3862  72.7458 13.20635105811919"}}, "geometry": {"type": "Point", "coordinates": [-119.01172863185501, -73.80605643289033]}}]}